TIANMU-1 08             
1 57400U 23101B   26066.00237819  .00000346  00000+0  14775-4 0  9993
2 57400  97.2717 118.7901 0006380 134.2174 225.9592 15.29204229146020
STARLINK-31553          
1 59363U 24060R   26068.56793379  .00000087  00000+0  12696-4 0  9991
2 59363  43.0043 253.6587 0001887 285.2179  74.8464 15.27570853110127
